[{"OBJECT_NAME":"STARLINK-31974","OBJECT_ID":"2024-100A","EPOCH":"2026-03-09T05:03:21.111264","MEAN_MOTION":15.27569115,"ECCENTRICITY":7.525e-5,"INCLINATION":42.9979,"RA_OF_ASC_NODE":128.0999,"ARG_OF_PERICENTER":191.7836,"MEAN_ANOMALY":168.2999,"EPHEMERIS_TYPE":0,"CLASSIFICATION_TYPE":"U","NORAD_CAT_ID":59885,"ELEMENT_SET_NO":999,"REV_AT_EPOCH":10098,"BSTAR":1.5241405e-5,"MEAN_MOTION_DOT":1.58e-6,"MEAN_MOTION_DDOT":0},{"OBJECT_NAME":"KUIPER-00226","OBJECT_ID":"2026-030X","EPOCH":"2026-03-09T15:01:51.726432","MEAN_MOTION":15.30655594,"ECCENTRICITY":0.0017713,"INCLINATION":51.8814,"RA_OF_ASC_NODE":220.1252,"ARG_OF_PERICENTER":64.2781,"MEAN_ANOMALY":296.003,"EPHEMERIS_TYPE":0,"CLASSIFICATION_TYPE":"U","NORAD_CAT_ID":67785,"ELEMENT_SET_NO":999,"REV_AT_EPOCH":507,"BSTAR":0.001553,"MEAN_MOTION_DOT":0.00046834,"MEAN_MOTION_DDOT":0}]
